HAWK-2A                 
1 47505U 21006CW  26068.67946547  .00008113  00000+0  25431-3 0  9990
2 47505  97.2459 115.6184 0006450 187.1463 172.9689 15.33304498284242
STARLINK-34474          
1 64474U 25133C   26068.41176458  .00018785  00000+0  64493-3 0  9994
2 64474  53.1580 118.2474 0001294  64.4406 295.6728 15.30190526 41125
